NORAD_CAT_ID,OBJECT_NAME,OBJECT_TYPE,EPOCH,MEAN_MOTION,ECCENTRICITY,INCLINATION,RA_OF_ASC_NODE,ARG_OF_PERICENTER,MEAN_ANOMALY,BSTAR,MEAN_MOTION_DOT,MEAN_MOTION_DDOT,TLE_LINE0,TLE_LINE1,TLE_LINE2,SEMIMAJOR_AXIS,PERIOD,APOGEE,PERIGEE,DECAYED
52499.0,STARLINK-3894,PAYLOAD,2022-07-08 08:00:01,15.73256004,0.0002596,53.2164,314.8589,22.6093,219.6405,0.00076526,0.00108445,0.0,0 STARLINK-3894,1 52499U 22049BA  22189.33334491  .00108445  00000-0  76526-3 0  9999,2 52499  53.2164 314.8589 0002596  22.6093 219.6405 15.73256004 10072,6727.736,91.53,351.347,347.85400000000016,0.0
52499.0,STARLINK-3894,PAYLOAD,2022-07-08 14:00:01,15.73344604,0.0002791,53.2163,313.6233,19.5193,199.4977,-0.00027639,-0.0003948,0.0,0 STARLINK-3894,1 52499U 22049BA  22189.58334491 -.00039480  00000-0 -27639-3 0  9991,2 52499  53.2163 313.6233 0002791  19.5193 199.4977 15.73344604  1306,6727.483,91.525,351.226,347.47,0.0
52499.0,STARLINK-3894,PAYLOAD,2022-07-08 22:00:01,15.73326042,0.0002779,53.2158,311.9733,11.8949,296.2452,-0.00075646,-0.00106054,0.0,0 STARLINK-3894,1 52499U 22049BA  22189.91668981 -.00106054  00000-0 -75646-3 0  9995,2 52499  53.2158 311.9733 0002779  11.8949 296.2452 15.73326042 10160,6727.536,91.526,351.27,347.531,0.0
52499.0,STARLINK-3894,PAYLOAD,2022-07-09 06:00:00,15.73225086,0.0002522,53.216,310.3219,9.4529,27.639,-0.00094127,-0.00130855,0.0,0 STARLINK-3894,1 52499U 22049BA  22190.25001157 -.00130855  00000-0 -94127-3 0  9991,2 52499  53.2160 310.3219 0002522   9.4529  27.6390 15.73225086 10228,6727.824000000001,91.532,351.385,347.992,0.0
52499.0,STARLINK-3894,PAYLOAD,2022-07-09 14:00:01,15.73120209,0.0002766,53.216,308.6743,8.3429,117.6581,-0.0011944,-0.00164494,0.0,0 STARLINK-3894,1 52499U 22049BA  22190.58334491 -.00164494  00000-0 -11944-2 0  9998,2 52499  53.2160 308.6743 0002766   8.3429 117.6581 15.73120209  1309,6728.123000000001,91.538,351.849,348.12699999999984,0.0
52499.0,STARLINK-3894,PAYLOAD,2022-07-09 20:00:01,15.7298411,0.0002901,53.2159,307.4377,6.7456,95.8397,0.00048537,0.00067427,0.0,0 STARLINK-3894,1 52499U 22049BA  22190.83334491  .00067427  00000-0  48537-3 0  9991,2 52499  53.2159 307.4377 0002901   6.7456  95.8397 15.72984110  1300,6728.511,91.546,352.32800000000015,348.4240000000001,0.0
52499.0,STARLINK-3894,PAYLOAD,2022-07-10 06:00:00,15.73135802,0.000273,53.2167,305.3696,15.0901,288.5522,0.00026835,0.00037108,0.0,0 STARLINK-3894,1 52499U 22049BA  22191.25001157  .00037108  00000-0  26835-3 0  9998,2 52499  53.2167 305.3696 0002730  15.0901 288.5522 15.73135802 10373,6728.078,91.537,351.78,348.106,0.0
52499.0,STARLINK-3894,PAYLOAD,2022-07-10 14:00:01,15.73176204,0.0003061,53.2166,303.7261,16.4237,16.0851,0.00011384,0.0001537,0.0,0 STARLINK-3894,1 52499U 22049BA  22191.58334491  .00015370  00000-0  11384-3 0  9994,2 52499  53.2166 303.7261 0003061  16.4237  16.0851 15.73176204  1300,6727.9630000000025,91.535,351.88699999999994,347.769,0.0
52499.0,STARLINK-3894,PAYLOAD,2022-07-10 22:00:00,15.73215332,0.0003127,53.2163,302.0762,15.5649,105.8471,7.1695e-05,9.459e-05,0.0,0 STARLINK-3894,1 52499U 22049BA  22191.91667824  .00009459  00000-0  71695-4 0  9993,2 52499  53.2163 302.0762 0003127  15.5649 105.8471 15.73215332  1306,6727.851,91.532,351.82,347.61300000000006,0.0
52499.0,STARLINK-3894,PAYLOAD,2022-07-11 06:00:00,15.73234969,0.0002877,53.2165,300.4252,16.4222,193.9417,0.0001852,0.00025491,0.0,0 STARLINK-3894,1 52499U 22049BA  22192.25001157  .00025491  00000-0  18520-3 0  9993,2 52499  53.2165 300.4252 0002877  16.4222 193.9417 15.73234969 10532,6727.795,91.531,351.596,347.725,0.0
52499.0,STARLINK-3894,PAYLOAD,2022-07-11 14:00:01,15.73217969,0.0003146,53.2164,298.7769,13.2324,286.1239,6.825100000000001e-05,8.975e-05,0.0,0 STARLINK-3894,1 52499U 22049BA  22192.58334491  .00008975  00000-0  68251-4 0  9994,2 52499  53.2164 298.7769 0003146  13.2324 286.1239 15.73217969  1304,6727.844,91.532,351.826,347.592,0.0
52499.0,STARLINK-3894,PAYLOAD,2022-07-11 22:00:00,15.73387284,0.0003021,53.2165,297.1251,8.392000000000001,19.9045,-0.0054211,-0.00706763,0.0,0 STARLINK-3894,1 52499U 22049BA  22192.91667824 -.00706763  00000-0 -54211-2 0  9991,2 52499  53.2165 297.1251 0003021   8.3920  19.9045 15.73387284 10645,6727.361,91.522,351.259,347.194,0.0
52499.0,STARLINK-3894,PAYLOAD,2022-07-12 06:00:00,15.73081596,0.0003113,53.2178,295.473,9.8925,107.1971,-0.007768,-0.00984036,0.0,0 STARLINK-3894,1 52499U 22049BA  22193.25001157 -.00984036  00000-0 -77680-2 0  9996,2 52499  53.2178 295.4730 0003113   9.8925 107.1971 15.73081596 10695,6728.233,91.54,352.19199999999995,348.00300000000016,0.0
52499.0,STARLINK-3894,PAYLOAD,2022-07-12 14:00:01,15.72371636,0.0003418,53.2176,293.829,8.3949,197.0505,-0.0086468999999999,-0.01054811,0.0,0 STARLINK-3894,1 52499U 22049BA  22193.58334491 -.01054811  00000-0 -86469-2 0  9997,2 52499  53.2176 293.8290 0003418   8.3949 197.0505 15.72371636 10747,6730.2580000000025,91.581,354.423,349.8230000000001,0.0
52499.0,STARLINK-3894,PAYLOAD,2022-07-12 22:00:00,15.71614029,0.0002709,53.2174,292.185,11.5123,281.3984,-0.0089623999999999,-0.01057743,0.0,0 STARLINK-3894,1 52499U 22049BA  22193.91667824 -.01057743  00000-0 -89624-2 0  9996,2 52499  53.2174 292.1850 0002709  11.5123 281.3984 15.71614029  1306,6732.420999999999,91.626,356.1090000000001,352.462,0.0
52499.0,STARLINK-3894,PAYLOAD,2022-07-13 06:00:00,15.70850537,0.0003097,53.2177,290.5427,5.4170000000000025,14.0479,-0.0091874,-0.01050686,0.0,0 STARLINK-3894,1 52499U 22049BA  22194.25001157 -.01050686  00000-0 -91874-2 0  9994,2 52499  53.2177 290.5427 0003097   5.4170  14.0479 15.70850537 10851,6734.602,91.67,358.55300000000005,354.381,0.0
52499.0,STARLINK-3894,PAYLOAD,2022-07-13 14:00:01,15.70100058,0.000366,53.2175,288.9055,349.2117,115.8883,-0.009621,-0.01064726,0.0,0 STARLINK-3894,1 52499U 22049BA  22194.58334491 -.01064726  00000-0 -96210-2 0  9999,2 52499  53.2175 288.9055 0003660 349.2117 115.8883 15.70100058  1308,6736.748000000001,91.714,361.078,356.147,0.0
52499.0,STARLINK-3894,PAYLOAD,2022-07-13 22:00:00,15.69330422,0.0005719,53.2174,287.267,315.7552,234.077,-0.0097744,-0.01050242,0.0,0 STARLINK-3894,1 52499U 22049BA  22194.91667824 -.01050242  00000-0 -97744-2 0  9996,2 52499  53.2174 287.2670 0005719 315.7552 234.0770 15.69330422  1307,6738.95,91.759,364.669,356.961,0.0
52499.0,STARLINK-3894,PAYLOAD,2022-07-14 08:00:01,15.68386135,0.0003057,53.2177,285.2221,347.7758,36.6795,-0.010234,-0.01055154,0.0,0 STARLINK-3894,1 52499U 22049BA  22195.33334491 -.01055154  00000-0 -10234-1 0  9999,2 52499  53.2177 285.2221 0003057 347.7758  36.6795 15.68386135 11020,6741.655,91.814,365.581,361.459,0.0
52499.0,STARLINK-3894,PAYLOAD,2022-07-14 14:00:01,15.67809222,0.000135,53.2176,283.9986,279.4844,77.0632,-0.010343,-0.01041984,0.0,0 STARLINK-3894,1 52499U 22049BA  22195.58334491 -.01041984  00000-0 -10343-1 0  9993,2 52499  53.2176 283.9986 0001350 279.4844  77.0632 15.67809222  1308,6743.309,91.848,366.084,364.263,0.0
52499.0,STARLINK-3894,PAYLOAD,2022-07-14 22:00:00,15.67062332,4.69e-05,53.2176,282.3655,273.3409,165.19299999999996,-0.010907,-0.01062905,0.0,0 STARLINK-3894,1 52499U 22049BA  22195.91667824 -.01062905  00000-0 -10907-1 0  9991,2 52499  53.2176 282.3655 0000469 273.3409 165.1930 15.67062332  1307,6745.451,91.892,367.632,367.0,0.0
52499.0,STARLINK-3894,PAYLOAD,2022-07-15 06:00:00,15.66294601,0.0001189,53.2179,280.7346,67.416,92.197,-0.011089,-0.01049149,0.0,0 STARLINK-3894,1 52499U 22049BA  22196.25001157 -.01049149  00000-0 -11089-1 0  9997,2 52499  53.2179 280.7346 0001189  67.4160  92.1970 15.66294601 11168,6747.655,91.937,370.322,368.718,0.0
52499.0,STARLINK-3894,PAYLOAD,2022-07-15 14:00:01,15.65535271,0.0001368,53.2177,279.1084,57.825,181.9507,-0.011442,-0.01049754,0.0,0 STARLINK-3894,1 52499U 22049BA  22196.58334491 -.01049754  00000-0 -11442-1 0  9998,2 52499  53.2177 279.1084 0001368  57.8250 181.9507 15.65535271  1307,6749.837,91.981,372.625,370.778,0.0
52499.0,STARLINK-3894,PAYLOAD,2022-07-15 22:00:00,15.64777346,0.0001026,53.2175,277.4807,81.5477,237.4797,-0.011832,-0.01052478,0.0,0 STARLINK-3894,1 52499U 22049BA  22196.91667824 -.01052478  00000-0 -11832-1 0  9994,2 52499  53.2175 277.4807 0001026  81.5477 237.4797 15.64777346 11269,6752.016,92.026,374.574,373.18800000000016,0.0
52499.0,STARLINK-3894,PAYLOAD,2022-07-16 14:00:01,15.63256181,0.0001606,53.2176,274.2348,40.7687,74.0226,-0.012508,-0.01047886,0.0,0 STARLINK-3894,1 52499U 22049BA  22197.58334491 -.01047886  00000-0 -12508-1 0  9997,2 52499  53.2176 274.2348 0001606  40.7687  74.0226 15.63256181 11371,6756.396,92.115,379.346,377.176,0.0
52499.0,STARLINK-3894,PAYLOAD,2022-07-16 22:00:00,15.62498986,0.0001206,53.2176,272.6125,88.7915,102.5133,-0.012944,-0.01068289,0.0,0 STARLINK-3894,1 52499U 22049BA  22197.91667824 -.01068289  00000-0 -12944-1 0  9997,2 52499  53.2176 272.6125 0001206  88.7915 102.5133 15.62498986  1304,6758.578,92.16,381.258,379.628,0.0
52499.0,STARLINK-3894,PAYLOAD,2022-07-17 06:00:00,15.61737455,0.000119,53.2178,270.9929,98.1277,168.7781,-0.013272,-0.01063602,0.0,0 STARLINK-3894,1 52499U 22049BA  22198.25001157 -.01063602  00000-0 -13272-1 0  9995,2 52499  53.2178 270.9929 0001190  98.1277 168.7781 15.61737455 11475,6760.775,92.205,383.445,381.836,0.0
52499.0,STARLINK-3894,PAYLOAD,2022-07-17 14:00:01,15.60978758,0.0001106,53.2177,269.3778,68.2847,273.3078,-0.013699,-0.01065635,0.0,0 STARLINK-3894,1 52499U 22049BA  22198.58334491 -.01065635  00000-0 -13699-1 0  9992,2 52499  53.2177 269.3778 0001106  68.2847 273.3078 15.60978758  1301,6762.965999999999,92.25,385.579,384.083,0.0
52499.0,STARLINK-3894,PAYLOAD,2022-07-17 22:00:00,15.60218182,0.0001104,53.2176,267.7608,65.2381,350.1311,-0.014081,-0.0106376,0.0,0 STARLINK-3894,1 52499U 22049BA  22198.91667824 -.01063760  00000-0 -14081-1 0  9991,2 52499  53.2176 267.7608 0001104  65.2381 350.1311 15.60218182 11585,6765.163000000001,92.295,387.775,386.281,0.0
